{"type":"FeatureCollection","features":[{"type":"Feature","properties":{"kind":"campus"},"geometry":{"type":"MultiPolygon","coordinates":[[[[-82.36097,29.6303],[-82.36097,29.63082],[-82.35889,29.6318],[-82.35887,29.63211],[-82.35688,29.63211],[-82.35688,29.6303],[-82.35581,29.6303],[-82.35585,29.6341],[-82.35536,29.6341],[-82.35536,29.63368],[-82.35485,29.63368],[-82.35486,29.63414],[-82.35414,29.63413],[-82.35406,29.63502],[-82.34809,29.63447],[-82.34457,29.63518],[-82.34478,29.63329],[-82.34214,29.63327],[-82.34245,29.63035],[-82.34225,29.63036],[-82.34265,29.62844],[-82.34222,29.62762],[-82.3427,29.62758],[-82.34488,29.62841],[-82.34557,29.62849],[-82.34688,29.62801],[-82.34713,29.62845],[-82.34811,29.6283],[-82.34857,29.62891],[-82.35044,29.62831],[-82.35115,29.62767],[-82.35076,29.62724],[-82.35111,29.62678],[-82.35211,29.62656],[-82.35267,29.627],[-82.35359,29.62707],[-82.35455,29.62822],[-82.35512,29.62794],[-82.35506,29.62754],[-82.35402,29.62711],[-82.35403,29.62617],[-82.35318,29.6261],[-82.35187,29.62526],[-82.35085,29.62368],[-82.34897,29.62306],[-82.34874,29.62081],[-82.35341,29.6205],[-82.35273,29.61416],[-82.35489,29.61377],[-82.3562,29.62579],[-82.35739,29.62713],[-82.36064,29.62891],[-82.3613,29.62995],[-82.36134,29.63033],[-82.36097,29.6303]]],[[[-82.36165,29.63051],[-82.36104,29.62898],[-82.36046,29.62844],[-82.35769,29.62704],[-82.357,29.62648],[-82.36164,29.6261],[-82.36165,29.63051]]],[[[-82.34785,29.63477],[-82.3536,29.63538],[-82.34336,29.63895],[-82.34306,29.63761],[-82.34327,29.63584],[-82.34785,29.63477]]],[[[-82.37234,29.63544],[-82.37208,29.65028],[-82.37137,29.65027],[-82.37136,29.64998],[-82.37106,29.64999],[-82.37107,29.65028],[-82.36418,29.65034],[-82.36421,29.64488],[-82.36267,29.64489],[-82.36266,29.64767],[-82.36129,29.64766],[-82.36137,29.65034],[-82.35592,29.65024],[-82.35217,29.65157],[-82.35195,29.652],[-82.33946,29.65189],[-82.33955,29.64248],[-82.34006,29.6413],[-82.34094,29.64041],[-82.34355,29.63922],[-82.34994,29.63701],[-82.35025,29.63785],[-82.35053,29.63783],[-82.3505,29.63685],[-82.35435,29.63547],[-82.35452,29.63597],[-82.35574,29.63524],[-82.35577,29.63761],[-82.35873,29.63763],[-82.35871,29.6339],[-82.35903,29.63376],[-82.35903,29.63683],[-82.36027,29.63684],[-82.36028,29.63317],[-82.36207,29.63232],[-82.36211,29.63341],[-82.36457,29.63339],[-82.36457,29.63116],[-82.36634,29.63031],[-82.37237,29.63031],[-82.37236,29.63333],[-82.37056,29.63333],[-82.37058,29.63543],[-82.37234,29.63544]]],[[[-82.37265,29.64482],[-82.37269,29.63881],[-82.37456,29.63881],[-82.37442,29.64482],[-82.37265,29.64482]]],[[[-82.33917,29.64503],[-82.33917,29.64726],[-82.33719,29.64747],[-82.33717,29.64497],[-82.33917,29.64503]]],[[[-82.35228,29.65193],[-82.35233,29.65165],[-82.35571,29.65047],[-82.35577,29.652],[-82.35228,29.65193]]]]}},{"type":"Feature","properties":{"kind":"ring"},"geometry":{"type":"Polygon","coordinates":[[[-82.39105,29.63698],[-82.391,29.64576],[-82.39047,29.64858],[-82.38977,29.65038],[-82.38862,29.65235],[-82.38749,29.65588],[-82.38534,29.65909],[-82.38234,29.66172],[-82.37847,29.66368],[-82.37528,29.66452],[-82.37307,29.66477],[-82.36352,29.66484],[-82.36099,29.66579],[-82.35786,29.66641],[-82.33842,29.66642],[-82.33489,29.66588],[-82.3311,29.66445],[-82.32762,29.66209],[-82.32523,29.65939],[-82.32419,29.65761],[-82.32338,29.65554],[-82.32152,29.65232],[-82.32061,29.64854],[-82.32058,29.64411],[-82.32085,29.6422],[-82.32225,29.63857],[-82.32557,29.63419],[-82.32571,29.62592],[-82.3264,29.62315],[-82.32769,29.62056],[-82.33026,29.61754],[-82.33336,29.61534],[-82.33474,29.61299],[-82.33652,29.61098],[-82.33725,29.60888],[-82.33875,29.60631],[-82.3416,29.60338],[-82.34334,29.60218],[-82.34624,29.60079],[-82.3494,29.59994],[-82.35369,29.59929],[-82.35584,29.59928],[-82.35903,29.59971],[-82.36207,29.60068],[-82.36483,29.60214],[-82.36722,29.60404],[-82.36966,29.60713],[-82.37112,29.61066],[-82.37164,29.61451],[-82.37336,29.61582],[-82.37667,29.61628],[-82.38069,29.61774],[-82.38334,29.6194],[-82.38556,29.62148],[-82.38773,29.62477],[-82.38867,29.6275],[-82.38898,29.63159],[-82.39032,29.6342],[-82.39105,29.63698]]]}}]}